OPS 6582 (TRANSIT 5B-5) 
1 00965U 64083D   22230.95258271  .00000070  00000+0  84032-4 0  9996
2 00965  90.0283 195.6145 0042693  48.2466  14.9741 13.56784930853995
OSCAR 7 (AO-7)          
1 07530U 74089B   22230.68884579 -.00000029  00000+0  10934-3 0  9998
2 07530 101.9094 210.7662 0011866 283.7903 249.4868 12.53656352185260
UOSAT 2 (UO-11)         
1 14781U 84021B   22230.76567630  .00000698  00000+0  90401-4 0  9995
2 14781  97.6218 215.3758 0009855 112.8788 247.3468 14.83758892 49281
NOAA 9                  
1 15427U 84123A   22230.71614532  .00000081  00000+0  64135-4 0  9996
2 15427  99.0503 204.0928 0014766 353.4208 179.5520 14.16216044945423
LUSAT (LO-19)           
1 20442U 90005G   22230.72946307  .00000099  00000+0  52724-4 0  9994
2 20442  98.7990 196.5585 0011603 351.8297   8.2696 14.33078031702023
ITAMSAT (IO-26)         
1 22826U 93061D   22230.36810885  .00000060  00000+0  40874-4 0  9999
2 22826  98.8782 262.5793 0008374 211.8571 148.2105 14.30533865507512
RADIO ROSTO (RS-15)     
1 23439U 94085A   22230.92342545 -.00000039  00000+0  10000-3 0  9996
2 23439  64.8125  44.5731 0167812 261.8541  96.3315 11.27571916138532
JAS-2 (FO-29)           
1 24278U 96046B   22230.84167365 -.00000030  00000+0  20874-5 0  9996
2 24278  98.5155 245.9486 0351263 121.3398 242.2623 13.53118888284048
NOAA 15                 
1 25338U 98030A   22231.14172369  .00000133  00000+0  73905-4 0  9998
2 25338  98.6412 259.8478 0011505 112.9605 247.2790 14.26162527262201
TECHSAT 1B (GO-32)      
1 25397U 98043D   22230.62305749  .00000039  00000+0  36590-4 0  9993
2 25397  98.8213 181.2681 0000490 349.6270  10.4898 14.23766148252270
ISS (ZARYA)             
1 25544U 98067A   22231.33830959  .00004930  00000+0  93573-4 0  9996
2 25544  51.6438  23.7306 0005524 137.1710  62.1113 15.50228062354979
ORSTED                  
1 25635U 99008B   22230.45226905  .00000291  00000+0  76480-4 0  9999
2 25635  96.4536  80.8364 0137727 344.1265  15.5637 14.48513592239527
PHASE 3D (AO-40)        
1 26609U 00072B   22230.68232601 -.00000271  00000+0  00000+0 0  9998
2 26609   5.9943 255.8711 7989956  43.2931 356.9880  1.25589355 99931
PCSAT (NO-44)           
1 26931U 01043C   22230.52838536  .00000033  00000+0  44169-4 0  9991
2 26931  67.0493 258.1703 0006786 257.5333 102.5009 14.30724632 90281
SAUDISAT 1C (SO-50)     
1 27607U 02058C   22231.12230454  .00000474  00000+0  85346-4 0  9992
2 27607  64.5545 110.1152 0080827 282.4117  76.7949 14.76205741 57836
CUTE-1 (CO-55)          
1 27844U 03031E   22230.81815826  .00000201  00000+0  10968-3 0  9999
2 27844  98.6797 237.5648 0008657 283.7238  76.2976 14.22481216992735
CUBESAT XI-IV (CO-57)   
1 27848U 03031J   22230.94136278  .00000164  00000+0  94021-4 0  9995
2 27848  98.6842 238.1928 0008668 299.3153  60.7158 14.22034602992596
